STARLINK-35868          
1 66579U 25268Y   25343.16668980 -.00085994  00000+0 -14752-2 0  9994
2 66579  43.0007 141.9865 0002027 266.2491  65.6834 15.50594787  4090
STARLINK-35872          
1 66580U 25268Z   25343.16668980 -.00082879  00000+0 -14211-2 0  9995
2 66580  43.0007 141.9825 0001884 262.9989  70.8498 15.50593514  4094
STARLINK-35744          
1 66581U 25268AA  25343.16668980 -.00087492  00000+0 -15012-2 0  9992
2 66581  43.0005 141.9768 0001951 263.2915  72.4742 15.50596256  4048
STARLINK-35746          
1 66582U 25268AB  25343.16668980 -.00082397  00000+0 -14127-2 0  9998
2 66582  43.0005 141.9718 0001963 264.8167  72.8676 15.50592796  4093
STARLINK-35941          
1 66583U 25268AC  25343.16668980 -.00081027  00000+0 -13889-2 0  9992
2 66583  43.0008 141.9681 0002039 265.1044  74.4964 15.50592018  4094
STARLINK-35939          
1 66584U 25268AD  25343.16668980 -.00071780  00000+0 -12285-2 0  9997
2 66584  43.0006 141.9628 0002016 263.0909  78.4249 15.50587844  4097
STARLINK-35963          
1 66585U 25268AE  25343.16668980 -.00084385  00000+0 -14472-2 0  9993
2 66585  43.0005 141.9580 0001809 275.1877  68.2472 15.50594434  4099
TJS-21                  
1 66586U 25269A   25341.73863598  .00001641  00000+0  32363+1 0  9997
2 66586  63.2904 162.9189 6806665 269.7757  18.6616  2.00608507   335
STARLINK-36076          
1 66588U 25270A   25343.16668980 -.01966385  00000+0 -29763-1 0  9997
2 66588  42.9992 213.6805 0001217 269.0125 290.5823 15.57365874  3824
STARLINK-35447          
1 66589U 25270B   25343.16668980 -.01967113  00000+0 -29773-1 0  9999
2 66589  42.9994 213.6708 0001135 267.9234 295.5013 15.57368631  3938
STARLINK-35429          
1 66590U 25270C   25343.16668980 -.01964916  00000+0 -29737-1 0  9999
2 66590  42.9993 213.6757 0001130 272.2131 289.2952 15.57367514  3934
